SENTINEL-6              
1 46984U 20086A   23237.15271137 -.00000063  00000+0 -96944-5 0  9998
2 46984  66.0407 108.2160 0007865 268.5070  91.5044 12.80929221128783
